FLOCK 4G-7              
1 62624U 25009R   26068.79996108  .00011422  00000+0  43168-3 0  9991
2 62624  97.3984 150.8270 0001396 336.9783  23.1393 15.27141471 63725
STARLINK-34092          
1 63904U 25095Q   26067.37483049  .00020298  00000+0  74418-3 0  9999
2 63904  43.0048 183.9185 0004049 289.7092  70.3323 15.27616990 47579
